[{"OBJECT_NAME":"STARLINK-4519","OBJECT_ID":"2022-097BD","EPOCH":"2026-03-09T22:22:28.823520","MEAN_MOTION":15.08834624,"ECCENTRICITY":0.00011805,"INCLINATION":53.217,"RA_OF_ASC_NODE":102.8004,"ARG_OF_PERICENTER":95.2187,"MEAN_ANOMALY":264.894,"EPHEMERIS_TYPE":0,"CLASSIFICATION_TYPE":"U","NORAD_CAT_ID":53439,"ELEMENT_SET_NO":999,"REV_AT_EPOCH":19883,"BSTAR":4.6704865e-5,"MEAN_MOTION_DOT":4.55e-6,"MEAN_MOTION_DDOT":0},{"OBJECT_NAME":"FENGYUN 1C DEB","OBJECT_ID":"1999-025DDJ","EPOCH":"2026-03-01T18:34:40.606176","MEAN_MOTION":14.6204627,"ECCENTRICITY":0.02210591,"INCLINATION":98.62,"RA_OF_ASC_NODE":179.8313,"ARG_OF_PERICENTER":250.664,"MEAN_ANOMALY":107.0539,"EPHEMERIS_TYPE":0,"CLASSIFICATION_TYPE":"U","NORAD_CAT_ID":33625,"ELEMENT_SET_NO":999,"REV_AT_EPOCH":62545,"BSTAR":0.0012246157,"MEAN_MOTION_DOT":8.674e-5,"MEAN_MOTION_DDOT":0}]
